GSAT-19                 
1 42747U 17031A   26193.78620795  .00000125  00000+0  00000+0 0  9997
2 42747   0.0327  86.9619 0006202   0.6687 173.9679  1.00271352 33407
ECHOSTAR 21             
1 42749U 17032A   26193.77886796  .00000067  00000+0  00000+0 0  9999
2 42749   1.7703 357.3470 0001958 109.7476 114.2275  1.00272691 33356
HXMT (HUIYAN)           
1 42758U 17034A   26193.85219997  .00002781  00000+0  14151-3 0  9994
2 42758  43.0152  40.1103 0032518 306.3947  53.3904 15.18677056501560
CARTOSAT-2E             
1 42767U 17036C   26193.86306226  .00000405  00000+0  22400-4 0  9997
2 42767  97.4269 253.2401 0003011 195.6086 164.5056 15.19239013502044
BULGARIASAT-1           
1 42801U 17038A   26193.77722131  .00000000  00000+0  00000+0 0  9993
2 42801   0.0307  63.6765 0003146  63.1991  85.4654  1.00271234 33102
IRIDIUM 113             
1 42803U 17039A   26193.77563765 -.00000001  00000+0 -73521-5 0  9999
2 42803  86.3988 311.4837 0002025  90.7272 269.4156 14.34217110474859
IRIDIUM 123             
1 42804U 17039B   26193.81711588 -.00000020  00000+0 -14222-4 0  9996
2 42804  86.3986 342.9228 0002040  96.2751 263.8677 14.34217071473627
IRIDIUM 120             
1 42805U 17039C   26193.28091816 -.00000034  00000+0 -19145-4 0  9997
2 42805  86.3977 311.4699 0002227  98.0173 262.1275 14.34216625474773
IRIDIUM 115             
1 42806U 17039D   26193.77099141  .00000178  00000+0  46938-4 0  9998
2 42806  86.4517 311.3969 0002210  99.8979 260.2471 14.43276801477951
IRIDIUM 118             
1 42807U 17039E   26193.84883031  .00000033  00000+0  45467-5 0  9993
2 42807  86.3985 342.9072 0002146  90.3042 269.8399 14.34217583473626
IRIDIUM 117             
1 42808U 17039F   26193.79808789  .00000131  00000+0  39629-4 0  9996
2 42808  86.3989 342.8857 0002191  95.0529 265.0917 14.34217409473646
IRIDIUM 126             
1 42809U 17039G   26193.82345965  .00000088  00000+0  24347-4 0  9995
2 42809  86.3988 342.9268 0002046  90.2583 269.8847 14.34217922473621
IRIDIUM 124             
1 42810U 17039H   26193.77410841  .00000187  00000+0  49453-4 0  9992
2 42810  86.4484 279.6610 0002288  95.7462 264.4000 14.43285398478805
IRIDIUM 128             
1 42811U 17039J   26193.53512498  .00000025  00000+0  17291-5 0  9995
2 42811  86.3962  14.5490 0002268  94.7630 265.3825 14.34216579473616
IRIDIUM 121             
1 42812U 17039K   26193.84248785 -.00000034  00000+0 -19044-4 0  9994
2 42812  86.3986 342.9472 0002123  92.9790 267.1648 14.34217144473508
HELLAS-SAT 3            
1 42814U 17040A   26193.78308711  .00000152  00000+0  00000+0 0  9993
2 42814   0.0449  43.6219 0003204  31.3572 176.5921  1.00269990 33062
GSAT-17                 
1 42815U 17040B   26193.86639537 -.00000258  00000+0  00000+0 0  9994
2 42815   0.0662  88.3755 0002238 168.8496  78.9225  1.00271220 33047
INTELSAT 35E (IS-35E)   
1 42818U 17041A   26193.48484672 -.00000237  00000+0  00000+0 0  9991
2 42818   0.0174  42.2312 0001574  68.1142 320.0780  1.00269882 33068
KANOPUS-V-IK            
1 42825U 17042A   26193.84901965  .00001237  00000+0  55427-4 0  9997
2 42825  97.3553  98.8539 0001741  92.4555 267.6882 15.23083658499271
NORSAT 1                
1 42826U 17042B   26193.51618745  .00003171  00000+0  17631-3 0  9996
2 42826  97.4456   0.6740 0006812   7.8859 352.2479 15.14376004491063
NORSAT 2                
1 42828U 17042D   26193.46824859  .00005357  00000+0  23472-3 0  9995
2 42828  97.4045   6.5177 0008409 329.0290  31.0450 15.22395979491589
TECHNOSAT               
1 42829U 17042E   26193.31433347  .00002176  00000+0  15666-3 0  9990
2 42829  97.4310 350.0210 0017694  12.7462 347.4209 15.05099876490485
FLYING LAPTOP           
1 42831U 17042G   26193.84730935  .00002325  00000+0  18449-3 0  9992
2 42831  97.4789 348.4132 0019817  39.9468 320.3210 15.01304050490300
WNISAT 1R               
1 42835U 17042L   26193.41057515  .00000645  00000+0  53772-4 0  9997
2 42835  97.4824 348.6321 0011199  73.3474 286.8979 15.01855093490294
LEMUR-2-GREENBERG       
1 42837U 17042N   26190.49536315  .00011532  00000+0  37497-3 0  9996
2 42837  97.3831  11.0293 0007135 283.6729  76.3718 15.32031511491802
LEMUR-2-ANDIS           
1 42838U 17042P   26193.46919441  .00012815  00000+0  36920-3 0  9997
2 42838  97.3674  14.2674 0007132 269.8003  90.2423 15.35849981492332
LEMUR-2-MONSON          
1 42839U 17042Q   26191.46928106  .00009600  00000+0  34677-3 0  9999
2 42839  97.4089  11.9359 0005156 266.7916  93.2733 15.28674858491721
LEMUR-2-FURIAUS         
1 42840U 17042R   26193.44556340  .00010642  00000+0  35675-3 0  9995
2 42840  97.3775  11.8672 0006239 340.6601  19.4403 15.31072029492076
LEMUR-2-PETERG          
1 42841U 17042S   26193.79443814  .00014951  00000+0  44268-3 0  9990
2 42841  97.3989  18.8865 0003152 230.6051 129.4913 15.34973234492364
LEMUR-2-DEMBITZ         
1 42842U 17042T   26193.46526970  .00009858  00000+0  33095-3 0  9996
2 42842  97.3821  14.9283 0005081 286.7424  73.3260 15.31053389492213
NANOACE                 
1 42844U 17042V   26193.42807616  .00007088  00000+0  28613-3 0  9996
2 42844  97.3744   7.3174 0002788 288.1780  71.9155 15.25084511491924
