OBJECT_NAME,OBJECT_ID,EPOCH,MEAN_MOTION,ECCENTRICITY,INCLINATION,RA_OF_ASC_NODE,ARG_OF_PERICENTER,MEAN_ANOMALY,EPHEMERIS_TYPE,CLASSIFICATION_TYPE,NORAD_CAT_ID,ELEMENT_SET_NO,REV_AT_EPOCH,BSTAR,MEAN_MOTION_DOT,MEAN_MOTION_DDOT
GSAT-19,2017-031A,2026-07-12T18:52:08.366880,1.00271352,.0006202,0.0327,86.9619,0.6687,173.9679,0,U,42747,999,3340,0,.125E-5,0
ECHOSTAR 21,2017-032A,2026-07-12T18:41:34.191744,1.00272691,.0001958,1.7703,357.3470,109.7476,114.2275,0,U,42749,999,3335,0,.67E-6,0
HXMT (HUIYAN),2017-034A,2026-07-12T20:27:10.077408,15.18677056,.0032518,43.0152,40.1103,306.3947,53.3904,0,U,42758,999,50156,.14151E-3,.2781E-4,0
CARTOSAT-2E,2017-036C,2026-07-12T20:42:48.579264,15.19239013,.0003011,97.4269,253.2401,195.6086,164.5056,0,U,42767,999,50204,.224E-4,.405E-5,0
BULGARIASAT-1,2017-038A,2026-07-12T18:39:11.921184,1.00271234,.0003146,0.0307,63.6765,63.1991,85.4654,0,U,42801,999,3310,0,0,0
IRIDIUM 113,2017-039A,2026-07-12T18:36:55.092960,14.34217110,.0002025,86.3988,311.4837,90.7272,269.4156,0,U,42803,999,47485,-.73521E-5,-.1E-7,0
IRIDIUM 123,2017-039B,2026-07-12T19:36:38.812032,14.34217071,.000204,86.3986,342.9228,96.2751,263.8677,0,U,42804,999,47362,-.14222E-4,-.2E-6,0
IRIDIUM 120,2017-039C,2026-07-12T06:44:31.329024,14.34216625,.0002227,86.3977,311.4699,98.0173,262.1275,0,U,42805,999,47477,-.19145E-4,-.34E-6,0
IRIDIUM 115,2017-039D,2026-07-12T18:30:13.657824,14.43276801,.000221,86.4517,311.3969,99.8979,260.2471,0,U,42806,999,47795,.46938E-4,.178E-5,0
IRIDIUM 118,2017-039E,2026-07-12T20:22:18.938784,14.34217583,.0002146,86.3985,342.9072,90.3042,269.8399,0,U,42807,999,47362,.45467E-5,.33E-6,0
IRIDIUM 117,2017-039F,2026-07-12T19:09:14.793696,14.34217409,.0002191,86.3989,342.8857,95.0529,265.0917,0,U,42808,999,47364,.39629E-4,.131E-5,0
IRIDIUM 126,2017-039G,2026-07-12T19:45:46.913760,14.34217922,.0002046,86.3988,342.9268,90.2583,269.8847,0,U,42809,999,47362,.24347E-4,.88E-6,0
IRIDIUM 124,2017-039H,2026-07-12T18:34:42.966624,14.43285398,.0002288,86.4484,279.6610,95.7462,264.4000,0,U,42810,999,47880,.49453E-4,.187E-5,0
IRIDIUM 128,2017-039J,2026-07-12T12:50:34.798272,14.34216579,.00022681,86.3962,14.5490,94.7630,265.3825,0,U,42811,999,47361,.1729092E-5,.25E-6,0
IRIDIUM 121,2017-039K,2026-07-12T20:13:10.950240,14.34217144,.0002123,86.3986,342.9472,92.9790,267.1648,0,U,42812,999,47350,-.19044E-4,-.34E-6,0
HELLAS-SAT 3,2017-040A,2026-07-12T18:47:38.726304,1.00269990,.0003204,0.0449,43.6219,31.3572,176.5921,0,U,42814,999,3306,0,.152E-5,0
GSAT-17,2017-040B,2026-07-12T20:47:36.559968,1.00271220,.0002238,0.0662,88.3755,168.8496,78.9225,0,U,42815,999,3304,0,-.258E-5,0
INTELSAT 35E (IS-35E),2017-041A,2026-07-12T11:38:10.756608,1.00269882,.00015743,0.0174,42.2312,68.1142,320.0780,0,U,42818,999,3306,0,-.237E-5,0
KANOPUS-V-IK,2017-042A,2026-07-12T20:22:35.297760,15.23083658,.0001741,97.3553,98.8539,92.4555,267.6882,0,U,42825,999,49927,.55427E-4,.1237E-4,0
NORSAT 1,2017-042B,2026-07-12T12:23:18.595680,15.14376004,.00068125,97.4456,0.6740,7.8859,352.2479,0,U,42826,999,49106,.17630819E-3,.3171E-4,0
NORSAT 2,2017-042D,2026-07-12T11:14:16.678176,15.22395979,.0008409,97.4045,6.5177,329.0290,31.0450,0,U,42828,999,49158,.23472119E-3,.5357E-4,0
TECHNOSAT,2017-042E,2026-07-12T07:32:38.411808,15.05099876,.00176948,97.4310,350.0210,12.7462,347.4209,0,U,42829,999,49048,.15666364E-3,.2176E-4,0
FLYING LAPTOP,2017-042G,2026-07-12T20:20:07.527840,15.01304050,.0019817,97.4789,348.4132,39.9468,320.3210,0,U,42831,999,49030,.18449E-3,.2325E-4,0
WNISAT 1R,2017-042L,2026-07-12T09:51:13.692960,15.01855093,.00111996,97.4824,348.6321,73.3474,286.8979,0,U,42835,999,49029,.53772376E-4,.645E-5,0
LEMUR-2-GREENBERG,2017-042N,2026-07-09T11:53:19.376160,15.32031511,.00071356,97.3831,11.0293,283.6729,76.3718,0,U,42837,999,49180,.3749711E-3,.11532E-3,0
LEMUR-2-ANDIS,2017-042P,2026-07-12T11:15:38.397024,15.35849981,.0007132,97.3674,14.2674,269.8003,90.2423,0,U,42838,999,49233,.36920282E-3,.12815E-3,0
LEMUR-2-MONSON,2017-042Q,2026-07-10T11:15:45.883584,15.28674858,.00051568,97.4089,11.9359,266.7916,93.2733,0,U,42839,999,49172,.34676682E-3,.96E-4,0
LEMUR-2-FURIAUS,2017-042R,2026-07-12T10:41:36.677760,15.31072029,.00062398,97.3775,11.8672,340.6601,19.4403,0,U,42840,999,49207,.35675373E-3,.10642E-3,0
LEMUR-2-PETERG,2017-042S,2026-07-12T19:03:59.455296,15.34973234,.0003152,97.3989,18.8865,230.6051,129.4913,0,U,42841,999,49236,.44268E-3,.14951E-3,0
LEMUR-2-DEMBITZ,2017-042T,2026-07-12T11:09:59.302080,15.31053389,.00050816,97.3821,14.9283,286.7424,73.3260,0,U,42842,999,49221,.33095021E-3,.9858E-4,0
NANOACE,2017-042V,2026-07-12T10:16:25.780224,15.25084511,.00027884,97.3744,7.3174,288.1780,71.9155,0,U,42844,999,49192,.28612733E-3,.7088E-4,0
